NORAD_CAT_ID,OBJECT_NAME,OBJECT_TYPE,EPOCH,MEAN_MOTION,ECCENTRICITY,INCLINATION,RA_OF_ASC_NODE,ARG_OF_PERICENTER,MEAN_ANOMALY,BSTAR,MEAN_MOTION_DOT,MEAN_MOTION_DDOT,TLE_LINE0,TLE_LINE1,TLE_LINE2,SEMIMAJOR_AXIS,PERIOD,APOGEE,PERIGEE,DECAYED
53787.0,STARLINK-4743,PAYLOAD,2024-01-27 13:31:53,15.08837426,0.0001667,53.2178,140.1735,62.5464,297.5697,5.2936e-05,5.54e-06,0.0,0 STARLINK-4743,1 53787U 22111Q   24027.56381732  .00000554  00000-0  52936-4 0  9990,2 53787  53.2178 140.1735 0001667  62.5464 297.5697 15.08837426 77133,6917.888,95.438,540.906,538.6,0.0
53787.0,STARLINK-4743,PAYLOAD,2024-01-27 15:07:16,15.08843163,0.0001436,53.2175,139.8741,70.1318,289.9828,5.9865e-05,6.65e-06,0.0,0 STARLINK-4743,1 53787U 22111Q   24027.63005224  .00000665  00000-0  59865-4 0  9998,2 53787  53.2175 139.8741 0001436  70.1318 289.9828 15.08843163 76336,6917.871,95.437,540.729,538.742,0.0
53787.0,STARLINK-4743,PAYLOAD,2024-01-28 11:47:18,15.08839519,0.0001645,53.217,136.0091,67.5059,292.6107,-7.2799e-05,-1.446e-05,0.0,0 STARLINK-4743,1 53787U 22111Q   24028.49118058 -.00001446  00000-0 -72799-4 0  9994,2 53787  53.2170 136.0091 0001645  67.5059 292.6107 15.08839519 76467,6917.882,95.438,540.885,538.609,0.0
53787.0,STARLINK-4743,PAYLOAD,2024-01-28 13:22:41,15.08841147,0.0001633,53.218,135.7119,67.0484,293.068,-6.5767e-05,-1.335e-05,0.0,0 STARLINK-4743,1 53787U 22111Q   24028.55741931 -.00001335  00000-0 -65767-4 0  9997,2 53787  53.2180 135.7119 0001633  67.0484 293.0680 15.08841147 77281,6917.877,95.437,540.872,538.612,0.0
53787.0,STARLINK-4743,PAYLOAD,2024-01-29 11:38:04,15.0884558,0.0001566,53.217,131.5478,73.4793,286.6371,0.00010722,1.419e-05,0.0,0 STARLINK-4743,1 53787U 22111Q   24029.48476920  .00001419  00000-0  10722-3 0  9994,2 53787  53.2170 131.5478 0001566  73.4793 286.6371 15.08845580 76617,6917.863,95.437,540.812,538.645,0.0
53787.0,STARLINK-4743,PAYLOAD,2024-01-30 11:28:51,15.08835723,0.000143,53.2182,127.0873,88.0792,272.0364,1.4396e-05,-5.9e-07,0.0,0 STARLINK-4743,1 53787U 22111Q   24030.47837769 -.00000059  00000-0  14396-4 0  9999,2 53787  53.2182 127.0873 0001430  88.0792 272.0364 15.08835723 76765,6917.893,95.438,540.748,538.769,0.0
53787.0,STARLINK-4743,PAYLOAD,2024-01-30 13:04:14,15.0883607,0.0001431,53.2181,126.7899,87.4585,272.6571,1.6269e-05,-2.9e-07,0.0,0 STARLINK-4743,1 53787U 22111Q   24030.54461753 -.00000029  00000-0  16269-4 0  9991,2 53787  53.2181 126.7899 0001431  87.4585 272.6571 15.08836070 77585,6917.892,95.438,540.747,538.767,0.0
53787.0,STARLINK-4743,PAYLOAD,2024-01-31 11:19:38,15.08840133,0.0001427,53.2176,122.6286,93.0107,267.1049,-9.9906e-06,-4.47e-06,0.0,0 STARLINK-4743,1 53787U 22111Q   24031.47197612 -.00000447  00000-0 -99906-5 0  9999,2 53787  53.2176 122.6286 0001427  93.0107 267.1049 15.08840133 77722,6917.88,95.438,540.732,538.758,0.0
53787.0,STARLINK-4743,PAYLOAD,2024-01-31 16:05:47,15.08855008,0.000143,53.217,121.7294,103.6923,256.4228,-0.0001259,-2.292e-05,0.0,0 STARLINK-4743,1 53787U 22111Q   24031.67068865 -.00002292  00000-0 -12590-3 0  9990,2 53787  53.2170 121.7294 0001430 103.6923 256.4228 15.08855008 76943,6917.835,95.437,540.689,538.71,0.0
53787.0,STARLINK-4743,PAYLOAD,2024-02-01 11:10:26,15.08835431,0.0001364,53.2169,118.1584,93.9234,266.1914,2.8525e-06,-2.43e-06,0.0,0 STARLINK-4743,1 53787U 22111Q   24032.46557930 -.00000243  00000-0  28525-5 0  9994,2 53787  53.2169 118.1584 0001364  93.9234 266.1914 15.08835431 77067,6917.894,95.438,540.703,538.816,0.0
53787.0,STARLINK-4743,PAYLOAD,2024-02-01 14:21:12,15.08832742,0.0001592,53.2173,117.5656,110.8897,249.2266,-7.1379e-06,-4.02e-06,0.0,0 STARLINK-4743,1 53787U 22111Q   24032.59806127 -.00000402  00000-0 -71379-5 0  9996,2 53787  53.2173 117.5656 0001592 110.8897 249.2266 15.08832742 77897,6917.903,95.438,540.869,538.666,0.0
53787.0,STARLINK-4743,PAYLOAD,2024-02-02 14:11:58,15.08845114,0.0001517,53.2176,113.1074,102.6211,257.4951,6.6065e-05,7.64e-06,0.0,0 STARLINK-4743,1 53787U 22111Q   24033.59165376  .00000764  00000-0  66065-4 0  9995,2 53787  53.2176 113.1074 0001517 102.6211 257.4951 15.08845114 78049,6917.865,95.437,540.779,538.68,0.0
53787.0,STARLINK-4743,PAYLOAD,2024-02-02 15:47:22,15.08843509,0.0001541,53.2175,112.8104,103.944,256.1723,8.7462e-05,1.104e-05,0.0,0 STARLINK-4743,1 53787U 22111Q   24033.65789394  .00001104  00000-0  87462-4 0  9997,2 53787  53.2175 112.8104 0001541 103.9440 256.1723 15.08843509 77243,6917.87,95.437,540.801,538.669,0.0
53787.0,STARLINK-4743,PAYLOAD,2024-02-03 04:30:27,15.08832185,0.0001495,53.217,110.4304,107.5615,252.5541,2.0943e-05,4.5e-07,0.0,0 STARLINK-4743,1 53787U 22111Q   24034.18782383  .00000045  00000-0  20943-4 0  9991,2 53787  53.2170 110.4304 0001495 107.5615 252.5541 15.08832185 77321,6917.904,95.438,540.804,538.735,0.0
53787.0,STARLINK-4743,PAYLOAD,2024-02-03 12:27:23,15.08837517,0.000153,53.2179,108.9484,71.6885,288.4274,6.3766e-05,7.27e-06,0.0,0 STARLINK-4743,1 53787U 22111Q   24034.51902317  .00000727  00000-0  63766-4 0  9996,2 53787  53.2179 108.9484 0001530  71.6885 288.4274 15.08837517 78181,6917.888,95.438,540.811,538.695,0.0
53787.0,STARLINK-4743,PAYLOAD,2024-02-04 04:21:14,15.08845152,0.0001402,53.2169,105.9732,86.1387,273.9765,-1.852e-05,-5.83e-06,0.0,0 STARLINK-4743,1 53787U 22111Q   24035.18142005 -.00000583  00000-0 -18520-4 0  9990,2 53787  53.2169 105.9732 0001402  86.1387 273.9765 15.08845152 77478,6917.865,95.437,540.7,538.76,0.0
53787.0,STARLINK-4743,PAYLOAD,2024-02-04 12:18:09,15.08851467,0.0001481,53.2174,104.4882,79.0704,281.0455,2.8355e-05,1.63e-06,0.0,0 STARLINK-4743,1 53787U 22111Q   24035.51261423  .00000163  00000-0  28355-4 0  9992,2 53787  53.2174 104.4882 0001481  79.0704 281.0455 15.08851467 78333,6917.845,95.437,540.735,538.686,0.0
53787.0,STARLINK-4743,PAYLOAD,2024-02-05 10:33:34,15.08839645,0.0001462,53.2167,100.3229,91.684,268.4319,8.8841e-06,-1.47e-06,0.0,0 STARLINK-4743,1 53787U 22111Q   24036.43998068 -.00000147  00000-0  88841-5 0  9996,2 53787  53.2167 100.3229 0001462  91.6840 268.4319 15.08839645 77662,6917.881,95.438,540.758,538.735,0.0
53787.0,STARLINK-4743,PAYLOAD,2024-02-06 10:24:21,15.08846558,0.0001542,53.216,95.8611,97.6527,262.464,-6.9753e-06,-3.99e-06,0.0,0 STARLINK-4743,1 53787U 22111Q   24037.43357647 -.00000399  00000-0 -69753-5 0  9990,2 53787  53.2160  95.8611 0001542  97.6527 262.4640 15.08846558 78624,6917.86,95.437,540.792,538.659,0.0
53787.0,STARLINK-4743,PAYLOAD,2024-02-07 03:53:36,15.08800159,0.0001975,53.2178,92.5917,108.0854,252.0353,0.00037191,5.629e-05,0.0,0 STARLINK-4743,1 53787U 22111Q   24038.16222783  .00005629  00000-0  37191-3 0  9991,2 53787  53.2178  92.5917 0001975 108.0854 252.0353 15.08800159 77921,6918.002,95.44,541.233,538.501,0.0
53787.0,STARLINK-4743,PAYLOAD,2024-02-07 10:15:09,15.08832586,0.0001781,53.2172,91.4016,111.6218,248.4963,-2.8674e-05,-7.44e-06,0.0,0 STARLINK-4743,1 53787U 22111Q   24038.42718848 -.00000744  00000-0 -28674-4 0  9994,2 53787  53.2172  91.4016 0001781 111.6218 248.4963 15.08832586 77961,6917.903,95.438,541.0,538.536,0.0
53787.0,STARLINK-4743,PAYLOAD,2024-02-08 10:05:55,15.08853679,0.0001697,53.2172,86.9455,113.5155,246.6016,-8.9275e-06,-4.3e-06,0.0,0 STARLINK-4743,1 53787U 22111Q   24039.42077865 -.00000430  00000-0 -89275-5 0  9999,2 53787  53.2172  86.9455 0001697 113.5155 246.6016 15.08853679 78117,6917.839,95.437,540.878,538.53,0.0
53787.0,STARLINK-4743,PAYLOAD,2024-02-09 01:59:47,15.08837997,0.0001592,53.2177,83.973,101.0209,259.0963,0.00013285,1.827e-05,0.0,0 STARLINK-4743,1 53787U 22111Q   24040.08318409  .00001827  00000-0  13285-3 0  9990,2 53787  53.2177  83.9730 0001592 101.0209 259.0963 15.08837997 78216,6917.887,95.438,540.853,538.65,0.0
53787.0,STARLINK-4743,PAYLOAD,2024-02-09 09:56:42,15.08838573,0.0001465,53.2173,82.4809,97.3883,262.7276,9.2035e-05,1.177e-05,0.0,0 STARLINK-4743,1 53787U 22111Q   24040.41438619  .00001177  00000-0  92035-4 0  9992,2 53787  53.2173  82.4809 0001465  97.3883 262.7276 15.08838573 79071,6917.885,95.438,540.763,538.736,0.0
53787.0,STARLINK-4743,PAYLOAD,2024-02-10 01:50:35,15.08835957,0.0001556,53.2175,79.5083,98.2014,261.9155,-4.2314e-05,-9.61e-06,0.0,0 STARLINK-4743,1 53787U 22111Q   24041.07679482 -.00000961  00000-0 -42314-4 0  9997,2 53787  53.2175  79.5083 0001556  98.2014 261.9155 15.08835957 78362,6917.893,95.438,540.834,538.681,0.0
53787.0,STARLINK-4743,PAYLOAD,2024-02-10 11:22:53,15.08839729,0.000167,53.2187,77.7237,88.2454,271.8729,-5.9609e-06,-3.83e-06,0.0,0 STARLINK-4743,1 53787U 22111Q   24041.47423298 -.00000383  00000-0 -59609-5 0  9997,2 53787  53.2187  77.7237 0001670  88.2454 271.8729 15.08839729 79235,6917.881,95.438,540.902,538.591,0.0
53787.0,STARLINK-4743,PAYLOAD,2024-02-11 11:13:39,15.08847776,0.0001666,53.2183,73.2615,95.6674,264.4509,0.00011342,1.518e-05,0.0,0 STARLINK-4743,1 53787U 22111Q   24042.46782397  .00001518  00000-0  11342-3 0  9994,2 53787  53.2183  73.2615 0001666  95.6674 264.4509 15.08847776 78574,6917.857,95.437,540.874,538.569,0.0
53787.0,STARLINK-4743,PAYLOAD,2024-02-12 11:04:26,15.088565,0.0001933,53.22,68.7924,106.8976,253.2229,6.2133e-05,7.01e-06,0.0,0 STARLINK-4743,1 53787U 22111Q   24043.46141865  .00000701  00000-0  62133-4 0  9992,2 53787  53.2200  68.7924 0001933 106.8976 253.2229 15.08856500 79530,6917.83,95.437,541.032,538.358,0.0
53787.0,STARLINK-4743,PAYLOAD,2024-02-13 01:22:56,15.08830106,0.000122,53.2188,66.1208,94.2707,265.8424,-0.00014751,-2.634e-05,0.0,0 STARLINK-4743,1 53787U 22111Q   24044.05760253 -.00002634  00000-0 -14751-3 0  9997,2 53787  53.2188  66.1208 0001220  94.2707 265.8424 15.08830106 78813,6917.911,95.438,540.62,538.932,0.0
53787.0,STARLINK-4743,PAYLOAD,2024-02-13 07:44:29,15.08836398,0.0001588,53.2181,64.9355,92.4006,267.7168,-9.2628e-05,-1.762e-05,0.0,0 STARLINK-4743,1 53787U 22111Q   24044.32255829 -.00001762  00000-0 -92628-4 0  9996,2 53787  53.2181  64.9355 0001588  92.4006 267.7168 15.08836398 78853,6917.891,95.438,540.855,538.658,0.0
